COMMENT,ORIGINATOR,NORAD_CAT_ID,OBJECT_NAME,OBJECT_TYPE,CLASSIFICATION_TYPE,INTLDES,EPOCH,EPOCH_MICROSECONDS,MEAN_MOTION,ECCENTRICITY,INCLINATION,RA_OF_ASC_NODE,ARG_OF_PERICENTER,MEAN_ANOMALY,EPHEMERIS_TYPE,ELEMENT_SET_NO,REV_AT_EPOCH,BSTAR,MEAN_MOTION_DOT,MEAN_MOTION_DDOT,FILE,TLE_LINE0,TLE_LINE1,TLE_LINE2,OBJECT_ID,OBJECT_NUMBER,SEMIMAJOR_AXIS,PERIOD,APOGEE,PERIGEE,DECAYED
GENERATED VIA SPACETRACK.ORG API,18 SPCS,8832,TITAN 3C TRANSTAGE DEB,DEBRIS,U,76023J,2024-03-04 10:42:45,978336,0.98258499,0.0137442,20.1034,53.2663,73.5184,283.7773,0,999,10939,0,-0.00000038,0,4208022,0 TITAN 3C TRANSTAGE DEB,1 08832U 76023J   24064.44636549 -.00000038  00000-0  00000-0 0  9998,2 08832  20.1034  53.2663 0137442  73.5184 283.7773  0.98258499109390,1976-023J,8832,42738.744,1465.522,36948.019,35773.199,0
GENERATED VIA SPACETRACK.ORG API,18 SPCS,44307,YAMAL 601,PAYLOAD,U,19031A,2024-03-04 10:31:59,365056,1.00270693,0.000236,0.0101,156.4753,195.034,18.1477,0,999,1754,0,0.00000125,0,4207676,0 YAMAL 601,1 44307U 19031A   24064.43888154  .00000125  00000-0  00000+0 0  9996,2 44307   0.0101 156.4753 0002360 195.0340  18.1477  1.00270693 17549,2019-031A,44307,42165.038,1436.113,35796.854,35776.952,0
GENERATED VIA SPACETRACK.ORG API,18 SPCS,42915,TDRS 13,PAYLOAD,U,17047A,2024-03-04 10:14:56,815008,1.00271825,0.0014111,3.7296,342.4461,106.2565,216.1805,0,999,2397,0,-0.00000091,0,4208022,0 TDRS 13,1 42915U 17047A   24064.42704647 -.00000091  00000-0  00000-0 0  9991,2 42915   3.7296 342.4461 0014111 106.2565 216.1805  1.00271825 23977,2017-047A,42915,42164.721,1436.096,35846.084,35727.087,0
GENERATED VIA SPACETRACK.ORG API,18 SPCS,41937,SBIRS GEO 4 (USA 273),PAYLOAD,U,17004A,2024-03-04 09:50:30,657120,1.00271511,0.000233,1.4557,349.7817,357.8128,225.8679,0,999,2623,0,-0.00000137,0,4207351,0 SBIRS GEO 4 (USA 273),1 41937U 17004A   24064.41007705 -.00000137  00000-0  00000+0 0  9997,2 41937   1.4557 349.7817 0002330 357.8128 225.8679  1.00271511 26239,2017-004A,41937,42164.809,1436.101,35796.498,35776.849,0
GENERATED VIA SPACETRACK.ORG API,18 SPCS,38699,TITAN 3C TRANSTAGE DEB,DEBRIS,U,68081Z,2024-03-04 09:19:18,488352,1.00848356,0.0099639,1.3615,338.8517,344.5735,132.5135,0,999,4345,0,-0.00000049,0,4208022,0 TITAN 3C TRANSTAGE DEB,1 38699U 68081Z   24064.38840843 -.00000049  00000-0  00000-0 0  9996,2 38699   1.3615 338.8517 0099639 344.5735 132.5135  1.00848356 43456,1968-081Z,38699,42003.869,1427.886,36044.256,35207.211,0
GENERATED VIA SPACETRACK.ORG API,18 SPCS,43454,TITAN 3C TRANSTAGE DEB,DEBRIS,U,69013M,2024-03-04 08:58:59,480256,1.02844843,0.0561172,1.4712,246.8475,212.3786,143.2698,0,999,2204,0,-0.00000132,0,4209183,0 TITAN 3C TRANSTAGE DEB,1 43454U 69013M   24064.37429954 -.00000132  00000-0  00000-0 0  9995,2 43454   1.4712 246.8475 0561172 212.3786 143.2698  1.02844843 22049,1969-013M,43454,41458.491,1400.167,37406.891,32753.822,0
GENERATED VIA SPACETRACK.ORG API,18 SPCS,44457,COSMOS 2539,PAYLOAD,U,19048A,2024-03-04 07:21:42,684192,1.00269649,0.0000042,0.0139,127.1038,130.5434,27.3119,0,999,1684,0,0.00000086,0,4207662,0 COSMOS 2539,1 44457U 19048A   24064.30674403  .00000086  00000-0  00000+0 0  9992,2 44457   0.0139 127.1038 0000042 130.5434  27.3119  1.00269649 16846,2019-048A,44457,42165.331,1436.127,35787.373,35787.019,0
GENERATED VIA SPACETRACK.ORG API,18 SPCS,29055,ASTRA 1KR,PAYLOAD,U,06012A,2024-03-04 07:14:42,677376,1.00269385,0.0002972,0.0788,280.8935,11.172,358.3356,0,999,6537,0,0.00000125,0,4207517,0 ASTRA 1KR,1 29055U 06012A   24064.30188284  .00000125  00000-0  00000+0 0  9997,2 29055   0.0788 280.8935 0002972  11.1720 358.3356  1.00269385 65371,2006-012A,29055,42165.405,1436.131,35799.801,35774.738,0
GENERATED VIA SPACETRACK.ORG API,18 SPCS,29055,ASTRA 1KR,PAYLOAD,U,06012A,2024-03-04 07:14:42,677376,1.00269385,0.0002972,0.0788,280.8935,11.172,358.3356,0,999,3734,0,0.00000125,0,4208022,0 ASTRA 1KR,1 29055U 06012A   24064.30188284  .00000125  00000-0  00000-0 0  9998,2 29055   0.0788 280.8935 0002972  11.1720 358.3356  1.00269385 37347,2006-012A,29055,42165.405,1436.131,35799.801,35774.738,0
GENERATED VIA SPACETRACK.ORG API,18 SPCS,44479,AMOS 17,PAYLOAD,U,19050A,2024-03-04 06:56:49,667136,1.00269924,0.0002118,0.0172,106.4909,264.2039,273.0304,0,999,1681,0,0.00000115,0,4207844,0 AMOS 17,1 44479U 19050A   24064.28946374  .00000115  00000-0  00000+0 0  9998,2 44479   0.0172 106.4909 0002118 264.2039 273.0304  1.00269924 16815,2019-050A,44479,42165.254,1436.124,35796.049,35778.188,0
GENERATED VIA SPACETRACK.ORG API,18 SPCS,44479,AMOS 17,PAYLOAD,U,19050A,2024-03-04 06:56:49,667136,1.00269924,0.0002118,0.0172,106.4909,264.2039,273.0304,0,999,1681,0,0.00000115,0,4208022,0 AMOS 17,1 44479U 19050A   24064.28946374  .00000115  00000-0  00000-0 0  9999,2 44479   0.0172 106.4909 0002118 264.2039 273.0304  1.00269924 16815,2019-050A,44479,42165.254,1436.124,35796.049,35778.188,0
GENERATED VIA SPACETRACK.ORG API,18 SPCS,25967,UFO 10 (USA 146),PAYLOAD,U,99063A,2024-03-04 06:33:42,706080,1.00268453,0.0003764,9.3978,31.0859,279.6721,287.2487,0,999,8896,0,-0.00000181,0,4207870,0 UFO 10 (USA 146),1 25967U 99063A   24064.27341095 -.00000181  00000-0  00000+0 0  9993,2 25967   9.3978  31.0859 0003764 279.6721 287.2487  1.00268453 88965,1999-063A,25967,42165.666,1436.145,35803.402,35771.660,0
GENERATED VIA SPACETRACK.ORG API,18 SPCS,25967,UFO 10 (USA 146),PAYLOAD,U,99063A,2024-03-04 06:33:42,706080,1.00268453,0.0003764,9.3978,31.0859,279.6721,287.2487,0,999,8897,0,-0.00000181,0,4208022,0 UFO 10 (USA 146),1 25967U 99063A   24064.27341095 -.00000181  00000-0  00000-0 0  9994,2 25967   9.3978  31.0859 0003764 279.6721 287.2487  1.00268453 88976,1999-063A,25967,42165.666,1436.145,35803.402,35771.660,0
GENERATED VIA SPACETRACK.ORG API,18 SPCS,33436,ASTRA 1M,PAYLOAD,U,08057A,2024-03-04 05:14:19,327200,1.00270153,0.000145,0.016,115.4566,289.6505,215.1145,0,999,3736,0,0.00000125,0,4208022,0 ASTRA 1M,1 33436U 08057A   24064.21827925  .00000125  00000-0  00000-0 0  9999,2 33436   0.0160 115.4566 0001450 289.6505 215.1145  1.00270153 37368,2008-057A,33436,42165.189,1436.120,35793.168,35780.941,0
GENERATED VIA SPACETRACK.ORG API,18 SPCS,20253,FLTSATCOM 8 (USA 46),PAYLOAD,U,89077A,2024-03-04 04:55:42,470688,1.00274575,0.000681,12.6667,356.2001,350.3087,15.7322,0,999,25223,0,-0.00000356,0,4206767,0 FLTSATCOM 8 (USA 46),1 20253U 89077A   24064.20535267 -.00000356  00000-0  00000+0 0  9993,2 20253  12.6667 356.2001 0006810 350.3087  15.7322  1.00274575252235,1989-077A,20253,42163.950,1436.057,35814.528,35757.101,0
GENERATED VIA SPACETRACK.ORG API,18 SPCS,42915,TDRS 13,PAYLOAD,U,17047A,2024-03-04 03:57:51,501888,1.00271891,0.0014085,3.7298,342.441,106.2696,121.6423,0,999,2400,0,-0.0000009,0,4206813,0 TDRS 13,1 42915U 17047A   24064.16517942 -.00000090  00000-0  00000+0 0  9990,2 42915   3.7298 342.4410 0014085 106.2696 121.6423  1.00271891 24002,2017-047A,42915,42164.702,1436.095,35845.956,35727.178,0
GENERATED VIA SPACETRACK.ORG API,18 SPCS,41384,IRNSS 1F,PAYLOAD,U,16015A,2024-03-04 01:51:56,543328,1.00276006,0.0020353,3.3254,121.8582,190.5014,270.4159,0,999,2928,0,0.00000164,0,4206524,0 IRNSS 1F,1 41384U 16015A   24064.07773777  .00000164  00000-0  00000+0 0  9994,2 41384   3.3254 121.8582 0020353 190.5014 270.4159  1.00276006 29280,2016-015A,41384,42163.549,1436.036,35871.229,35699.598,0
GENERATED VIA SPACETRACK.ORG API,18 SPCS,42749,ECHOSTAR 21,PAYLOAD,U,17032A,2024-03-04 01:45:33,87168,1.00271403,0.0002297,2.7236,317.608,22.7976,218.5327,0,999,2474,0,0.00000073,0,4206607,0 ECHOSTAR 21,1 42749U 17032A   24064.07329962  .00000073  00000-0  00000+0 0  9992,2 42749   2.7236 317.6080 0002297  22.7976 218.5327  1.00271403 24749,2017-032A,42749,42164.839,1436.102,35796.389,35777.019,0
GENERATED VIA SPACETRACK.ORG API,18 SPCS,33373,NIMIQ 4,PAYLOAD,U,08044A,2024-03-04 01:19:06,630240,1.00272376,0.0001898,0.0119,134.1896,207.4558,118.4035,0,999,5646,0,-0.00000214,0,4206591,0 NIMIQ 4,1 33373U 08044A   24064.05493785 -.00000214  00000-0  00000+0 0  9999,2 33373   0.0119 134.1896 0001898 207.4558 118.4035  1.00272376 56462,2008-044A,33373,42164.566,1436.088,35794.434,35778.428,0
GENERATED VIA SPACETRACK.ORG API,18 SPCS,41469,IRNSS 1G,PAYLOAD,U,16027A,2024-03-04 01:04:42,750336,1.00270055,0.0005037,3.2066,123.1668,290.2467,254.5608,0,999,2879,0,-0.0000033,0,4206940,0 IRNSS 1G,1 41469U 16027A   24064.04493924 -.00000330  00000-0  00000+0 0  9997,2 41469   3.2066 123.1668 0005037 290.2467 254.5608  1.00270055 28791,2016-027A,41469,42165.217,1436.122,35808.321,35765.843,0
GENERATED VIA SPACETRACK.ORG API,18 SPCS,22787,UFO 2 (USA 95),PAYLOAD,U,93056A,2024-03-04 00:37:42,690720,1.00269177,0.0004,11.6279,7.9042,359.2931,193.1579,0,999,11028,0,0.00000134,0,4207432,0 UFO 2 (USA 95),1 22787U 93056A   24064.02618855  .00000134  00000-0  00000+0 0  9997,2 22787  11.6279   7.9042 0004000 359.2931 193.1579  1.00269177110282,1993-056A,22787,42165.463,1436.134,35804.194,35770.462,0
GENERATED VIA SPACETRACK.ORG API,18 SPCS,22787,UFO 2 (USA 95),PAYLOAD,U,93056A,2024-03-04 00:37:42,690720,1.00269177,0.0004,11.6279,7.9042,359.2931,193.1579,0,999,11017,0,0.00000134,0,4208022,0 UFO 2 (USA 95),1 22787U 93056A   24064.02618855  .00000134  00000-0  00000-0 0  9998,2 22787  11.6279   7.9042 0004000 359.2931 193.1579  1.00269177110170,1993-056A,22787,42165.463,1436.134,35804.194,35770.462,0
GENERATED VIA SPACETRACK.ORG API,18 SPCS,41548,BREEZE-M DEB,DEBRIS,U,15075J,2024-03-04 00:34:52,952736,1.0219532,0.0361829,6.7883,63.9165,110.9333,253.1354,0,999,3073,0,-0.00000248,0,4208022,0 BREEZE-M DEB,1 41548U 15075J   24064.02422399 -.00000248  00000-0  00000-0 0  9992,2 41548   6.7883  63.9165 0361829 110.9333 253.1354  1.02195320 30734,2015-075J,41548,41633.971,1409.066,36762.274,33749.398,0
